ONEWEB-0328             
1 49197U 21083M   25103.57979418  .00000125  00000+0  30753-3 0  9993
2 49197  87.8965  45.5833 0001850  83.3706 276.7634 13.13471088174502
ONEWEB-0331             
1 49198U 21083N   25103.83921507  .00000057  00000+0  11275-3 0  9991
2 49198  87.9114  60.7945 0002094  90.9201 269.2171 13.18688495173428
ONEWEB-0333             
1 49199U 21083P   25103.57471073  .00000055  00000+0  11452-3 0  9996
2 49199  87.8977  45.6431 0001907  78.0833 282.0510 13.13471081174514
ONEWEB-0334             
1 49200U 21083Q   25103.67724994  .00000011  00000+0 -36861-5 0  9999
2 49200  87.9319 359.9839 0002107  50.0698 310.0620 13.20781075180092
ONEWEB-0335             
1 49201U 21083R   25103.79817085 -.00000080  00000+0 -25493-3 0  9991
2 49201  87.8980  45.5870 0002093  85.2778 274.8590 13.13471319174558
ONEWEB-0336             
1 49202U 21083S   25103.76938593  .00000000  00000+0 -35968-4 0  9997
2 49202  87.8981  45.5866 0002067  78.6865 281.4497 13.13468236174542
ONEWEB-0337             
1 49203U 21083T   25103.85557925 -.00000232  00000+0 -66956-3 0  9992
2 49203  87.8978  45.5683 0001862  85.4080 274.7262 13.13471858175857
ONEWEB-0338             
1 49204U 21083U   25103.65203928  .00000059  00000+0  11290-3 0  9998
2 49204  87.9324 359.9751 0001752  68.2655 291.8664 13.20771280180118
ONEWEB-0339             
1 49205U 21083V   25103.25476250 -.00000217  00000+0 -62833-3 0  9992
2 49205  87.8977  45.6765 0001777  79.1675 280.9654 13.13471538174459
ONEWEB-0340             
1 49206U 21083W   25103.59737656  .00000059  00000+0  11782-3 0  9999
2 49206  87.9114  60.8396 0002042  86.3136 273.8230 13.18685532173356
ONEWEB-0341             
1 49207U 21083X   25103.60525423 -.00000177  00000+0 -48047-3 0  9996
2 49207  87.9114  60.8483 0001497  95.3685 264.7618 13.18685154173377
ONEWEB-0342             
1 49208U 21083Y   25103.65835095  .00000134  00000+0  29800-3 0  9998
2 49208  87.9316 359.9585 0001791  75.3711 284.7621 13.20771931180086
ONEWEB-0343             
1 49209U 21083Z   25103.60052170  .00000104  00000+0  23125-3 0  9990
2 49209  87.9108  60.8388 0001358  83.0228 277.1059 13.18684076173424
ONEWEB-0344             
1 49210U 21083AA  25103.85786835  .00042211  00000+0  11672+0 0  9996
2 49210  87.9018  45.5987 0002273  91.1013 269.0376 13.12468506175831
ONEWEB-0345             
1 49211U 21083AB  25103.85063808 -.00000179  00000+0 -52631-3 0  9998
2 49211  87.8982  45.5504 0001610  93.9452 266.1861 13.13468468174549
ONEWEB-0346             
1 49212U 21083AC  25103.61001638 -.00000411  00000+0 -10762-2 0  9993
2 49212  87.9113  60.8571 0002400  91.0749 269.0658 13.18688089173360
ONEWEB-0348             
1 49213U 21083AD  25103.64887661  .00000123  00000+0  27181-3 0  9997
2 49213  87.9328 359.9609 0001981 100.1041 260.0316 13.20773502180114
ONEWEB-0350             
1 49214U 21083AE  25103.78298819  .00001877  00000+0  51042-2 0  9993
2 49214  87.8982  45.5552 0001550  89.1762 270.9544 13.13455716174564
ONEWEB-0351             
1 49215U 21083AF  25103.64243187  .00000077  00000+0  15815-3 0  9997
2 49215  87.9322 359.9482 0001366  53.3017 306.8241 13.20770880180075
ONEWEB-0352             
1 49216U 21083AG  25103.76457685 -.00030580  00000+0 -84346-1 0  9998
2 49216  87.8981  45.5980 0003171  96.3980 263.7510 13.13229396174659
ONEWEB-0354             
1 49217U 21083AH  25103.74357645  .00000145  00000+0  32395-3 0  9993
2 49217  87.9324 359.9240 0001725  90.5475 269.5855 13.20772304181431
ONEWEB-0355             
1 49218U 21083AJ  25103.56467773 -.00000086  00000+0 -27096-3 0  9996
2 49218  87.8977  45.6360 0001699  81.5370 278.5952 13.13471009174509
ONEWEB-0357             
1 49219U 21083AK  25103.74041189  .00000167  00000+0  37895-3 0  9992
2 49219  87.9321 359.9330 0001651  77.5725 282.5593 13.20774102181422
ONEWEB-0332             
1 49279U 21090A   25104.21879636  .00000075  00000+0  16672-3 0  9993
2 49279  87.9094  15.0344 0001863  70.3381 289.7949 13.14501011171225
ONEWEB-0347             
1 49280U 21090B   25103.73093983  .00000133  00000+0  29500-3 0  9993
2 49280  87.9324 359.9413 0002077  70.8273 289.3085 13.20774108174353
ONEWEB-0349             
1 49281U 21090C   25103.68674335 -.00000032  00000+0 -11074-3 0  9991
2 49281  87.9327 359.9548 0001896  77.9598 282.1748 13.20773550173134
ONEWEB-0353             
1 49282U 21090D   25103.75415605  .00000131  00000+0  31944-3 0  9999
2 49282  87.9095  15.1128 0001923  70.3852 289.7485 13.14504412171167
ONEWEB-0356             
1 49283U 21090E   25103.60941043  .00000025  00000+0  29268-4 0  9993
2 49283  87.9325 359.9617 0002759  87.1749 272.9700 13.20774702173125
ONEWEB-0358             
1 49284U 21090F   25104.16970578  .00000044  00000+0  76340-4 0  9995
2 49284  87.9325 359.8403 0001934  85.4863 274.6491 13.20772468175215
ONEWEB-0359             
1 49285U 21090G   25103.63625538  .00000078  00000+0  15934-3 0  9998
2 49285  87.9324 359.9592 0001691  92.5151 267.6176 13.20771704173834
ONEWEB-0360             
1 49286U 21090H   25103.62678473  .00000017  00000+0  10526-4 0  9990
2 49286  87.9325 359.9669 0001768  84.3887 275.7448 13.20771646173142
ONEWEB-0361             
1 49287U 21090J   25103.68360129 -.00000012  00000+0 -61249-4 0  9998
2 49287  87.9324 359.9507 0002026  81.7670 278.3693 13.20769571173608
ONEWEB-0362             
1 49288U 21090K   25103.75091645  .00000041  00000+0  70299-4 0  9996
2 49288  87.9258  30.3445 0001698  77.2944 282.8378 13.19724803170271
ONEWEB-0363             
1 49289U 21090L   25104.15392687  .00000026  00000+0  33062-4 0  9992
2 49289  87.9324 359.8526 0002221  86.0913 274.0474 13.20771697174507
ONEWEB-0364             
1 49290U 21090M   25103.43423919  .00000086  00000+0  17961-3 0  9992
2 49290  87.9327   0.0245 0002043  80.4875 279.6489 13.20771474174715
ONEWEB-0365             
1 49291U 21090N   25104.21528819  .00000128  00000+0  28672-3 0  9993
2 49291  87.9251  30.2130 0001858  75.3188 284.8151 13.19726154171133
ONEWEB-0366             
1 49292U 21090P   25103.44651278  .00000159  00000+0  39468-3 0  9993
2 49292  87.9095  15.1856 0001878  79.9192 280.2149 13.14504244171107
ONEWEB-0367             
1 49293U 21090Q   25104.15234004  .00000144  00000+0  32118-3 0  9996
2 49293  87.9325 359.8479 0001647  76.5221 283.6096 13.20772270174499
ONEWEB-0368             
1 49294U 21090R   25103.44370241 -.00000013  00000+0 -64275-4 0  9999
2 49294  87.9326   0.0212 0002596  69.5982 290.5430 13.20773590174250
ONEWEB-0369             
1 49295U 21090S   25103.52819651  .00000066  00000+0  13359-3 0  9994
2 49295  87.9256  30.3730 0001953  76.1091 284.0259 13.19723444171036
ONEWEB-0370             
1 49296U 21090T   25103.70728024  .00000041  00000+0  69537-4 0  9991
2 49296  87.9326 359.9414 0001508  84.7996 275.3309 13.20771326173179
ONEWEB-0371             
1 49297U 21090U   25103.76355107  .00000013  00000+0  12051-5 0  9995
2 49297  87.9256  30.3160 0001821  76.5631 283.5704 13.19725052169812
ONEWEB-0372             
1 49298U 21090V   25103.77185043  .00000055  00000+0  10368-3 0  9990
2 49298  87.9326 359.9379 0001864  74.9525 285.1814 13.20771688174458
ONEWEB-0373             
1 49299U 21090W   25104.17766153 -.00013530  00000+0 -33398-1 0  9993
2 49299  87.9322 359.8700 0002044  78.7630 281.3733 13.20690859175697
ONEWEB-0374             
1 49300U 21090X   25103.50994504  .00000223  00000+0  56616-3 0  9998
2 49300  87.9093  15.1543 0002404  79.6286 280.5115 13.14505481171116
ONEWEB-0375             
1 49301U 21090Y   25103.71042679  .00000071  00000+0  14288-3 0  9999
2 49301  87.9325 359.9397 0002353  91.5291 268.6111 13.20773773173835
ONEWEB-0376             
1 49302U 21090Z   25104.21687397  .00000092  00000+0  19750-3 0  9990
2 49302  87.9252  30.2149 0001880  71.4343 288.6994 13.19725033171156
ONEWEB-0377             
1 49303U 21090AA  25104.15091008  .00000085  00000+0  17606-3 0  9992
2 49303  87.9324 359.8451 0001746  88.2784 271.8549 13.20769856175167
ONEWEB-0378             
1 49304U 21090AB  25104.17299829  .00000078  00000+0  16057-3 0  9997
2 49304  87.9326 359.8474 0001986  81.5732 278.5626 13.20772188174475
ONEWEB-0379             
1 49305U 21090AC  25103.50520481  .00000209  00000+0  52853-3 0  9995
2 49305  87.9093  15.1595 0001947  75.9712 284.1634 13.14505271171115
ONEWEB-0380             
1 49306U 21090AD  25103.53136364  .00000039  00000+0  66273-4 0  9995
2 49306  87.9257  30.3745 0001989  85.6997 274.4363 13.19724839171033
ONEWEB-0381             
1 49307U 21090AE  25103.61731562 -.00000019  00000+0 -79692-4 0  9995
2 49307  87.9327 359.9587 0002026  86.0555 274.0810 13.20770349173128
ONEWEB-0382             
1 49308U 21090AF  25103.68044874  .00000063  00000+0  12312-3 0  9998
2 49308  87.9325 359.9409 0002214  83.0085 277.1300 13.20771892173126
ONEWEB-0383             
1 49309U 21090AG  25103.27049441  .00000173  00000+0  43309-3 0  9991
2 49309  87.9090  15.1878 0002038  77.3663 282.7695 13.14504807171118
ONEWEB-0384             
1 49310U 21090AH  25103.67709881  .00000052  00000+0  95093-4 0  9992
2 49310  87.9327 359.9576 0002390  82.1545 277.9859 13.20779677173139
ONEWEB-0385             
1 49311U 21090AJ  25103.44529285  .00000021  00000+0  20903-4 0  9990
2 49311  87.9326   0.0043 0002031  81.4242 278.7121 13.20770438173070
ONEWEB-0386             
1 49312U 21090AK  25103.68992104 -.00000026  00000+0 -95394-4 0  9994
2 49312  87.9319 359.9305 0002184  80.2249 279.9130 13.20771761173122
ONEWEB-0387             
1 49313U 21090AL  25103.44685494  .00000090  00000+0  18866-3 0  9997
2 49313  87.9310   0.0473 0001996  89.9111 270.2251 13.20772648173097
ONEWEB-0388             
1 49314U 21090AM  25103.75407868  .00000072  00000+0  14859-3 0  9997
2 49314  87.9258  30.3351 0002055  79.6399 280.4965 13.19724774169771
